EUTELSAT 7A             
1 28187U 04008A   25212.45903490  .00000106  00000+0  00000+0 0  9999
2 28187   5.0114  75.8580 0000937  50.2497 209.2362  1.00272627 78138
EUTELSAT 174A           
1 28924U 05052A   25212.58256493  .00000014  00000+0  00000+0 0  9994
2 28924   3.4025  80.5455 0006401  46.0863 206.5468  1.00273158 49119
EUTELSAT HOTBIRD 13B    
1 29270U 06032A   25212.48324666  .00000161  00000+0  00000+0 0  9998
2 29270   0.8293  85.8696 0004040  43.1436  27.3666  1.00273376 44091
EUTELSAT HOTBIRD 13C    
1 33459U 08065A   25212.40283958 -.00000096  00000+0  00000+0 0  9998
2 33459   2.1217  83.0540 0003426  55.2795 303.4381  1.00272346 44125
EUTELSAT 36B            
1 36101U 09065A   25212.48671333  .00000118  00000+0  00000+0 0  9996
2 36101   0.0553 336.0252 0005809 155.8505  43.1899  1.00274570 57493
EUTELSAT KA-SAT 9A      
1 37258U 10069A   25212.33575851  .00000067  00000+0  00000+0 0  9991
2 37258   0.0567 308.8360 0003957 186.6990 303.5042  1.00273660 40798
EUTELSAT 7 WEST A       
1 37816U 11051A   25212.40387958 -.00000054  00000+0  00000+0 0  9997
2 37816   0.0610  12.8234 0004959 130.6290 303.8874  1.00272670 50689
EUTELSAT 16A            
1 37836U 11057A   25212.42892124  .00000110  00000+0  00000+0 0  9995
2 37836   0.0637   8.4474 0005500 121.9593 349.2684  1.00271785 50576
